{
"type": "FeatureCollection",
"name": "DATA_17062026",
"crs": { "type": "name", "properties": { "name": "urn:ogc:def:crs:OGC:1.3:CRS84" } },
"features": [
{ "type": "Feature", "properties": { "Имя станции": "1", "Положение станции": "В кутовой части бухты, у стока ручья, на растоянии 4 м от уреза воды", "Глубина места": "0.45 м", "Тип дна": "Песчаное светлое", "ID измерения": 1.1, "Слой": "Поверхностный", "T": 25.3, "S": 11.6, "Время": "10:40:00", "Широта (Y)": 44.59478873, "Долгота (X)": 33.44780486 }, "geometry": { "type": "Point", "coordinates": [ 33.44780486, 44.59478873 ] } },
{ "type": "Feature", "properties": { "Имя станции": "1", "Положение станции": "В кутовой части бухты, у стока ручья, на растоянии 4 м от уреза воды", "Глубина места": "0.45 м", "Тип дна": "Песчаное светлое", "ID измерения": 1.2, "Слой": "Придонный", "T": 22.0, "S": 15.0, "Время": "10:45:00", "Широта (Y)": 44.59478873, "Долгота (X)": 33.44780486 }, "geometry": { "type": "Point", "coordinates": [ 33.44780486, 44.59478873 ] } },
{ "type": "Feature", "properties": { "Имя станции": "2", "Положение станции": "Слева от косы, на расстоянии 6 м от берега", "Глубина места": "0.5 - 1 м", "Тип дна": "Песчаное светлое", "ID измерения": 2.1, "Слой": "Поверхностный", "T": 24.2, "S": 14.7, "Время": "10:52:00", "Широта (Y)": 44.5959537, "Долгота (X)": 33.44770252 }, "geometry": { "type": "Point", "coordinates": [ 33.44770252, 44.5959537 ] } },
{ "type": "Feature", "properties": { "Имя станции": "2", "Положение станции": "Справа от косы, на расстоянии 1 м от берега", "Глубина места": "0.5 - 1 м", "Тип дна": "Песчаное светлое", "ID измерения": 2.2, "Слой": "Поверхностный", "T": 22.9, "S": 13.9, "Время": "10:53:00", "Широта (Y)": 44.59586222, "Долгота (X)": 33.44742232 }, "geometry": { "type": "Point", "coordinates": [ 33.44742232, 44.59586222 ] } },
{ "type": "Feature", "properties": { "Имя станции": "3", "Положение станции": "Напротив 1 раздевалки, 8 м от берега", "Глубина места": "1 м", "Тип дна": "Каменистое", "ID измерения": 3.1, "Слой": "Поверхностный", "T": 22.8, "S": 15.14, "Время": "10:59:00", "Широта (Y)": 44.59698139, "Долгота (X)": 33.44627754 }, "geometry": { "type": "Point", "coordinates": [ 33.44627754, 44.59698139 ] } },
{ "type": "Feature", "properties": { "Имя станции": "3", "Положение станции": "Напротив 1 раздевалки, 8 м от берега", "Глубина места": "1.5 м", "Тип дна": "Каменистое", "ID измерения": 3.2, "Слой": "Поверхностный", "T": 22.6, "S": 15.8, "Время": "11:00:00", "Широта (Y)": 44.59736481, "Долгота (X)": 33.44526152 }, "geometry": { "type": "Point", "coordinates": [ 33.44526152, 44.59736481 ] } },
{ "type": "Feature", "properties": { "Имя станции": "3", "Положение станции": "правее 1 раздевалки, 8 м от берега", "Глубина места": "1 м", "Тип дна": "Каменистое темное", "ID измерения": 3.3, "Слой": "Поверхностный", "T": 22.5, "S": 15.33, "Время": "11:02:00", "Широта (Y)": 44.59736481, "Долгота (X)": 33.44526152 }, "geometry": { "type": "Point", "coordinates": [ 33.44526152, 44.59736481 ] } },
{ "type": "Feature", "properties": { "Имя станции": "4", "Положение станции": "Левее 1 вышки, 2 м от берега", "Глубина места": "1-1.5 м", "Тип дна": "Песчаное светлое", "ID измерения": 4.1, "Слой": "Поверхностный", "T": 22.85, "S": 15.7, "Время": "11:07:00", "Широта (Y)": 44.59750859, "Долгота (X)": 33.44483579 }, "geometry": { "type": "Point", "coordinates": [ 33.44483579, 44.59750859 ] } },
{ "type": "Feature", "properties": { "Имя станции": "4", "Положение станции": "Левее 1 вышки, 2 м от берега", "Глубина места": "1-1.5 м", "Тип дна": "Песчаное светлое", "ID измерения": 4.1, "Слой": "Придонный", "T": 22.8, "S": 15.85, "Время": "11:07:00", "Широта (Y)": 44.59750859, "Долгота (X)": 33.44483579 }, "geometry": { "type": "Point", "coordinates": [ 33.44483579, 44.59750859 ] } },
{ "type": "Feature", "properties": { "Имя станции": "4", "Положение станции": "Правее 1 вышки", "Глубина места": "1-1.5 м", "Тип дна": "Песчаное светлое", "ID измерения": 4.2, "Слой": "Поверхностный", "T": 22.4, "S": 16.6, "Время": "11:09:00", "Широта (Y)": 44.59757377, "Долгота (X)": 33.44463635 }, "geometry": { "type": "Point", "coordinates": [ 33.44463635, 44.59757377 ] } },
{ "type": "Feature", "properties": { "Имя станции": "4", "Положение станции": "Правее 1 вышки", "Глубина места": "1-1.5 м", "Тип дна": "Песчаное светлое", "ID измерения": 4.2, "Слой": "Придонный", "T": 22.35, "S": 16.42, "Время": "11:09:00", "Широта (Y)": 44.59757377, "Долгота (X)": 33.44463635 }, "geometry": { "type": "Point", "coordinates": [ 33.44463635, 44.59757377 ] } },
{ "type": "Feature", "properties": { "Имя станции": "5", "Положение станции": "Напротив лестницы", "Глубина места": "1-1.5 м", "Тип дна": "песчаное", "ID измерения": 5.1, "Слой": "Поверхностный", "T": 22.6, "S": null, "Время": "11:12:00", "Широта (Y)": 44.597715, "Долгота (X)": 33.44434657 }, "geometry": { "type": "Point", "coordinates": [ 33.44434657, 44.597715 ] } },
{ "type": "Feature", "properties": { "Имя станции": "5", "Положение станции": "Напротив лестницы", "Глубина места": "1-1.5 м", "Тип дна": "песчаное", "ID измерения": 5.1, "Слой": "Придонный", "T": 21.6, "S": null, "Время": "11:12:00", "Широта (Y)": 44.597715, "Долгота (X)": 33.44434657 }, "geometry": { "type": "Point", "coordinates": [ 33.44434657, 44.597715 ] } },
{ "type": "Feature", "properties": { "Имя станции": "5", "Положение станции": "Правее лестницы", "Глубина места": "1 м", "Тип дна": "песчаное", "ID измерения": 5.2, "Слой": "Поверхностный", "T": 23.6, "S": 17.03, "Время": "11:13:00", "Широта (Y)": 44.59783705, "Долгота (X)": 33.44416053 }, "geometry": { "type": "Point", "coordinates": [ 33.44416053, 44.59783705 ] } },
{ "type": "Feature", "properties": { "Имя станции": "6", "Положение станции": "Правее 1 пирса", "Глубина места": "2 м", "Тип дна": "каменное", "ID измерения": 6.1, "Слой": "Поверхностный", "T": 22.47, "S": 17.7, "Время": "11:18:00", "Широта (Y)": 44.59835039, "Долгота (X)": 33.44364931 }, "geometry": { "type": "Point", "coordinates": [ 33.44364931, 44.59835039 ] } },
{ "type": "Feature", "properties": { "Имя станции": "6", "Положение станции": "Левее 1 пирса (в тени)", "Глубина места": "2 м", "Тип дна": "каменное", "ID измерения": 6.2, "Слой": "Поверхностный", "T": 22.2, "S": 17.29, "Время": "11:19:00", "Широта (Y)": 44.59830603, "Долгота (X)": 33.44376806 }, "geometry": { "type": "Point", "coordinates": [ 33.44376806, 44.59830603 ] } },
{ "type": "Feature", "properties": { "Имя станции": "7", "Положение станции": "Между 2 пирсами", "Глубина места": "1.5 м", "Тип дна": "Песчаное светлое", "ID измерения": 7.1, "Слой": "Поверхностный", "T": 21.6, "S": 17.5, "Время": "11:28:00", "Широта (Y)": 44.59869363, "Долгота (X)": 33.44251778 }, "geometry": { "type": "Point", "coordinates": [ 33.44251778, 44.59869363 ] } },
{ "type": "Feature", "properties": { "Имя станции": "7", "Положение станции": "Между 2 пирсами", "Глубина места": "1.5 м", "Тип дна": "Песчаное светлое", "ID измерения": 7.1, "Слой": "Придонный", "T": 21.72, "S": 17.55, "Время": "11:28:00", "Широта (Y)": 44.59869363, "Долгота (X)": 33.44251778 }, "geometry": { "type": "Point", "coordinates": [ 33.44251778, 44.59869363 ] } },
{ "type": "Feature", "properties": { "Имя станции": "8", "Положение станции": "Правее 2 пирса", "Глубина места": "1.5-2 м", "Тип дна": "Песчаное", "ID измерения": 8.1, "Слой": "Поверхностный", "T": 20.78, "S": 17.66, "Время": "11:32:00", "Широта (Y)": 44.59907929, "Долгота (X)": 33.44136263 }, "geometry": { "type": "Point", "coordinates": [ 33.44136263, 44.59907929 ] } },
{ "type": "Feature", "properties": { "Имя станции": "8", "Положение станции": "Левее 2 пирса", "Глубина места": "1.5-2м", "Тип дна": "Песчаное", "ID измерения": 8.2, "Слой": "Поверхностный", "T": 20.67, "S": 17.85, "Время": "11:32:00", "Широта (Y)": 44.59903687, "Долгота (X)": 33.44156775 }, "geometry": { "type": "Point", "coordinates": [ 33.44156775, 44.59903687 ] } },
{ "type": "Feature", "properties": { "Имя станции": "8", "Положение станции": "На краю 2 пирса", "Глубина места": "1.5-2м", "Тип дна": "Песчаное", "ID измерения": 8.3, "Слой": "Поверхностный", "T": 20.67, "S": 17.86, "Время": "11:33:00", "Широта (Y)": 44.59914485, "Долгота (X)": 33.44152457 }, "geometry": { "type": "Point", "coordinates": [ 33.44152457, 44.59914485 ] } },
{ "type": "Feature", "properties": { "Имя станции": "9", "Положение станции": "Левее укрытия", "Глубина места": "1.5 м", "Тип дна": "Песчано-каменистое", "ID измерения": 9.1, "Слой": "Поверхностный", "T": 21.0, "S": 17.58, "Время": "11:38:00", "Широта (Y)": 44.59892475, "Долгота (X)": 33.44046756 }, "geometry": { "type": "Point", "coordinates": [ 33.44046756, 44.59892475 ] } },
{ "type": "Feature", "properties": { "Имя станции": "10", "Положение станции": "Напротив синих перил (водоросли на дне)", "Глубина места": "1 – 1.5 м", "Тип дна": "Песчаное", "ID измерения": 10.1, "Слой": "Поверхностный", "T": 21.06, "S": 17.7, "Время": "11:42:00", "Широта (Y)": 44.59926741, "Долгота (X)": 33.43990221 }, "geometry": { "type": "Point", "coordinates": [ 33.43990221, 44.59926741 ] } },
{ "type": "Feature", "properties": { "Имя станции": "10", "Положение станции": "Напротив синих перил (водоросли на дне)", "Глубина места": "1 – 1.5 м", "Тип дна": "Песчаное", "ID измерения": 10.1, "Слой": "Придонный", "T": 21.1, "S": 17.6, "Время": "11:42:00", "Широта (Y)": 44.59926741, "Долгота (X)": 33.43990221 }, "geometry": { "type": "Point", "coordinates": [ 33.43990221, 44.59926741 ] } },
{ "type": "Feature", "properties": { "Имя станции": "11 | (море)", "Положение станции": "‎напротив 1 спасательной вышки", "Глубина места": "75 см", "Тип дна": "песчаное дно", "ID измерения": 11.1, "Слой": "Поверхностный", "T": 22.3, "S": 16.24, "Время": "12:15:00", "Широта (Y)": 44.59728858, "Долгота (X)": 33.44698187 }, "geometry": { "type": "Point", "coordinates": [ 33.44698187, 44.59728858 ] } },
{ "type": "Feature", "properties": { "Имя станции": "12 | (море)", "Положение станции": "‎на створе между лестницей и бочкой", "Глубина места": "3 м", "Тип дна": "песчаное дно", "ID измерения": 12.1, "Слой": "Поверхностный", "T": 21.5, "S": 17.43, "Время": "12:22:00", "Широта (Y)": 44.59863627, "Долгота (X)": 33.44655944 }, "geometry": { "type": "Point", "coordinates": [ 33.44655944, 44.59863627 ] } },
{ "type": "Feature", "properties": { "Имя станции": "13 | (море)", "Положение станции": "на траверзе первой буны и вертолетки", "Глубина места": "4 м", "Тип дна": "песчаное дно", "ID измерения": 13.3, "Слой": "Поверхностный", "T": 21.1, "S": 17.6, "Время": "12:32:00", "Широта (Y)": 44.59934769, "Долгота (X)": 33.44660073 }, "geometry": { "type": "Point", "coordinates": [ 33.44660073, 44.59934769 ] } }
]
}
